NORAD_CAT_ID,OBJECT_NAME,OBJECT_TYPE,EPOCH,MEAN_MOTION,ECCENTRICITY,INCLINATION,RA_OF_ASC_NODE,ARG_OF_PERICENTER,MEAN_ANOMALY,BSTAR,MEAN_MOTION_DOT,MEAN_MOTION_DDOT,TLE_LINE0,TLE_LINE1,TLE_LINE2,SEMIMAJOR_AXIS,PERIOD,APOGEE,PERIGEE,DECAYED
52110.0,STARLINK-3687,PAYLOAD,2024-07-25 05:52:55,15.08843902,0.0001458,53.2153,218.7067,94.7671,265.3487,9.6104e-05,1.242e-05,0.0,0 STARLINK-3687,1 52110U 22029Y   24207.24508528  .00001242  00000-0  96104-4 0  9996,2 52110  53.2153 218.7067 0001458  94.7671 265.3487 15.08843902131340,6917.868,95.437,540.742,538.725,0.0
52110.0,STARLINK-3687,PAYLOAD,2024-07-25 07:28:18,15.0884413,0.0001463,53.2154,218.4095,94.6516,265.4643,9.2645e-05,1.187e-05,0.0,0 STARLINK-3687,1 52110U 22029Y   24207.31132493  .00001187  00000-0  92645-4 0  9992,2 52110  53.2154 218.4095 0001463  94.6516 265.4643 15.08844130131352,6917.868,95.437,540.745,538.721,0.0
52110.0,STARLINK-3687,PAYLOAD,2024-07-26 04:08:19,15.08838847,0.0001447,53.2155,214.5447,89.2217,270.8941,0.00010553,1.392e-05,0.0,0 STARLINK-3687,1 52110U 22029Y   24208.17244708  .00001392  00000-0  10553-3 0  9995,2 52110  53.2155 214.5447 0001447  89.2217 270.8941 15.08838847131484,6917.884,95.438,540.75,538.748,0.0
52110.0,STARLINK-3687,PAYLOAD,2024-07-26 10:29:52,15.08837077,0.0001433,53.2154,213.356,93.8093,266.3063,8.9222e-05,1.132e-05,0.0,0 STARLINK-3687,1 52110U 22029Y   24208.43740868  .00001132  00000-0  89222-4 0  9994,2 52110  53.2154 213.3560 0001433  93.8093 266.3063 15.08837077131528,6917.889,95.438,540.746,538.763,0.0
52110.0,STARLINK-3687,PAYLOAD,2024-07-26 23:12:56,15.08841724,0.0001411,53.2151,210.978,88.4995,271.6159,7.0993e-05,8.42e-06,0.0,0 STARLINK-3687,1 52110U 22029Y   24208.96732633  .00000842  00000-0  70993-4 0  9995,2 52110  53.2151 210.9780 0001411  88.4995 271.6159 15.08841724131607,6917.875,95.437,540.716,538.764,0.0
52110.0,STARLINK-3687,PAYLOAD,2024-07-27 05:34:29,15.08839862,0.0001419,53.2152,209.7882,88.8395,271.276,4.6893e-05,4.58e-06,0.0,0 STARLINK-3687,1 52110U 22029Y   24209.23228783  .00000458  00000-0  46893-4 0  9997,2 52110  53.2152 209.7882 0001419  88.8395 271.2760 15.08839862131641,6917.881,95.438,540.727,538.764,0.0
52110.0,STARLINK-3687,PAYLOAD,2024-07-27 10:20:38,15.08841465,0.000145,53.2154,208.896,89.3828,270.733,5.7175e-05,6.22e-06,0.0,0 STARLINK-3687,1 52110U 22029Y   24209.43100621  .00000622  00000-0  57175-4 0  9997,2 52110  53.2154 208.8960 0001450  89.3828 270.7330 15.08841465131674,6917.876,95.437,540.744,538.738,0.0
52110.0,STARLINK-3687,PAYLOAD,2024-07-28 10:11:26,15.08836117,0.0001402,53.2153,204.4357,93.9025,266.2128,3.8478e-05,3.24e-06,0.0,0 STARLINK-3687,1 52110U 22029Y   24210.42461097  .00000324  00000-0  38478-4 0  9999,2 52110  53.2153 204.4357 0001402  93.9025 266.2128 15.08836117131822,6917.892,95.438,540.727,538.787,0.0
52110.0,STARLINK-3687,PAYLOAD,2024-07-29 06:51:27,15.08838033,0.0001384,53.2153,200.5696,89.9402,270.1749,4.591e-05,4.43e-06,0.0,0 STARLINK-3687,1 52110U 22029Y   24211.28573181  .00000443  00000-0  45910-4 0  9993,2 52110  53.2153 200.5696 0001384  89.9402 270.1749 15.08838033131954,6917.886,95.438,540.709,538.794,0.0
52110.0,STARLINK-3687,PAYLOAD,2024-07-29 16:23:45,15.08843152,0.0001368,53.2153,198.7852,84.8834,275.2314,7.7744e-05,9.5e-06,0.0,0 STARLINK-3687,1 52110U 22029Y   24211.68316809  .00000950  00000-0  77744-4 0  9992,2 52110  53.2153 198.7852 0001368  84.8834 275.2314 15.08843152132011,6917.871,95.437,540.682,538.789,0.0
52110.0,STARLINK-3687,PAYLOAD,2024-07-29 22:45:18,15.08839444,0.0001453,53.2159,197.5966,84.4327,275.6831,7.0442e-05,8.33e-06,0.0,0 STARLINK-3687,1 52110U 22029Y   24211.94813126  .00000833  00000-0  70442-4 0  9993,2 52110  53.2159 197.5966 0001453  84.4327 275.6831 15.08839444132059,6917.882,95.438,540.752,538.742,0.0
52110.0,STARLINK-3687,PAYLOAD,2024-07-30 06:42:14,15.08839314,0.0001419,53.2158,196.1094,90.7369,269.3786,9.2415e-05,1.183e-05,0.0,0 STARLINK-3687,1 52110U 22029Y   24212.27933111  .00001183  00000-0  92415-4 0  9990,2 52110  53.2158 196.1094 0001419  90.7369 269.3786 15.08839314132104,6917.882,95.438,540.729,538.766,0.0
52110.0,STARLINK-3687,PAYLOAD,2024-07-30 16:14:32,15.088435,0.0001427,53.2161,194.3251,91.0508,269.0648,0.0001268,1.731e-05,0.0,0 STARLINK-3687,1 52110U 22029Y   24212.67676781  .00001731  00000-0  12680-3 0  9995,2 52110  53.2161 194.3251 0001427  91.0508 269.0648 15.08843500132163,6917.87,95.437,540.722,538.748,0.0
52110.0,STARLINK-3687,PAYLOAD,2024-07-31 04:57:38,15.0883663,0.000165,53.2171,191.9418,94.4099,265.7082,4.8966e-05,4.91e-06,0.0,0 STARLINK-3687,1 52110U 22029Y   24213.20669596  .00000491  00000-0  48966-4 0  9990,2 52110  53.2171 191.9418 0001650  94.4099 265.7082 15.08836630132242,6917.891,95.438,540.897,538.614,0.0
52110.0,STARLINK-3687,PAYLOAD,2024-07-31 16:05:20,15.08842235,0.0001452,53.2148,189.8642,93.9401,266.1758,4.6098e-05,4.46e-06,0.0,0 STARLINK-3687,1 52110U 22029Y   24213.67037241  .00000446  00000-0  46098-4 0  9991,2 52110  53.2148 189.8642 0001452  93.9401 266.1758 15.08842235132313,6917.874,95.437,540.743,538.734,0.0
52110.0,STARLINK-3687,PAYLOAD,2024-08-01 04:48:24,15.08846072,0.0001502,53.2157,187.4842,99.0277,261.0885,8.8677e-05,1.124e-05,0.0,0 STARLINK-3687,1 52110U 22029Y   24214.20028895  .00001124  00000-0  88677-4 0  9999,2 52110  53.2157 187.4842 0001502  99.0277 261.0885 15.08846072132399,6917.862,95.437,540.766,538.688,0.0
52110.0,STARLINK-3687,PAYLOAD,2024-08-01 22:17:39,15.08842455,0.0001571,53.2151,184.213,101.8817,258.2352,0.00014528,2.025e-05,0.0,0 STARLINK-3687,1 52110U 22029Y   24214.92892775  .00002025  00000-0  14528-3 0  9998,2 52110  53.2151 184.2130 0001571 101.8817 258.2352 15.08842455132507,6917.873,95.437,540.825,538.651,0.0
52110.0,STARLINK-3687,PAYLOAD,2024-08-02 04:39:12,15.08838396,0.0001374,53.2175,183.0242,101.6045,258.5102,4.2394e-05,3.87e-06,0.0,0 STARLINK-3687,1 52110U 22029Y   24215.19389391  .00000387  00000-0  42394-4 0  9995,2 52110  53.2175 183.0242 0001374 101.6045 258.5102 15.08838396132545,6917.885,95.438,540.701,538.8,0.0
52110.0,STARLINK-3687,PAYLOAD,2024-08-02 07:49:58,15.08838923,0.0001378,53.2174,182.4291,102.0819,258.0327,4.2889e-05,3.95e-06,0.0,0 STARLINK-3687,1 52110U 22029Y   24215.32637345  .00000395  00000-0  42889-4 0  9993,2 52110  53.2174 182.4291 0001378 102.0819 258.0327 15.08838923132561,6917.884,95.438,540.702,538.795,0.0
52110.0,STARLINK-3687,PAYLOAD,2024-08-02 22:08:26,15.0883817,0.0001366,53.2176,179.7526,101.7459,258.3687,4.043e-05,3.56e-06,0.0,0 STARLINK-3687,1 52110U 22029Y   24215.92253423  .00000356  00000-0  40430-4 0  9997,2 52110  53.2176 179.7526 0001366 101.7459 258.3687 15.08838170132652,6917.886,95.438,540.696,538.806,0.0
52110.0,STARLINK-3687,PAYLOAD,2024-08-03 04:30:00,15.08814712,0.0001007,53.2161,178.5649,94.8272,265.2835,0.0003504,5.289e-05,0.0,0 STARLINK-3687,1 52110U 22029Y   24216.18750317  .00005289  00000-0  35040-3 0  9990,2 52110  53.2161 178.5649 0001007  94.8272 265.2835 15.08814712132698,6917.958,95.439,540.519,539.126,0.0
52110.0,STARLINK-3687,PAYLOAD,2024-08-03 07:40:45,15.08842236,0.0001088,53.2158,177.9695,86.427,273.6846,-1.753e-05,-5.67e-06,0.0,0 STARLINK-3687,1 52110U 22029Y   24216.31997331 -.00000567  00000-0 -17530-4 0  9995,2 52110  53.2158 177.9695 0001088  86.4270 273.6846 15.08842236132712,6917.874,95.437,540.491,538.986,0.0
52110.0,STARLINK-3687,PAYLOAD,2024-08-03 14:02:17,15.08850454,0.0001227,53.2167,176.781,92.32,267.7932,4.1716e-05,3.76e-06,0.0,0 STARLINK-3687,1 52110U 22029Y   24216.58492507  .00000376  00000-0  41716-4 0  9998,2 52110  53.2167 176.7810 0001227  92.3200 267.7932 15.08850454132757,6917.848,95.437,540.562,538.865,0.0
52110.0,STARLINK-3687,PAYLOAD,2024-08-03 18:48:27,15.08834605,0.0001785,53.2174,175.8919,108.4733,251.6453,8.2056e-05,1.018e-05,0.0,0 STARLINK-3687,1 52110U 22029Y   24216.78365445  .00001018  00000-0  82056-4 0  9996,2 52110  53.2174 175.8919 0001785 108.4733 251.6453 15.08834605132787,6917.897,95.438,540.997,538.527,0.0
52110.0,STARLINK-3687,PAYLOAD,2024-08-04 04:20:47,15.0882902,0.000156,53.2177,174.1097,116.536,243.5793,3.7141e-05,3.03e-06,0.0,0 STARLINK-3687,1 52110U 22029Y   24217.18110069  .00000303  00000-0  37141-4 0  9992,2 52110  53.2177 174.1097 0001560 116.5360 243.5793 15.08829020132845,6917.914,95.438,540.858,538.7,0.0
52110.0,STARLINK-3687,PAYLOAD,2024-08-04 13:53:04,15.08848963,0.0001386,53.2181,172.3224,97.9925,262.1224,8.5417e-05,1.072e-05,0.0,0 STARLINK-3687,1 52110U 22029Y   24217.57852674  .00001072  00000-0  85417-4 0  9993,2 52110  53.2181 172.3224 0001386  97.9925 262.1224 15.08848963132907,6917.853,95.437,540.677,538.759,0.0
52110.0,STARLINK-3687,PAYLOAD,2024-08-05 04:11:33,15.08841658,0.0001649,53.2172,169.6479,104.6784,255.4391,3.2337e-05,2.27e-06,0.0,0 STARLINK-3687,1 52110U 22029Y   24218.17469594  .00000227  00000-0  32337-4 0  9999,2 52110  53.2172 169.6479 0001649 104.6784 255.4391 15.08841658132992,6917.875,95.437,540.881,538.6,0.0
52110.0,STARLINK-3687,PAYLOAD,2024-08-05 13:43:51,15.08855642,0.0001079,53.2164,167.8608,77.8021,282.3092,0.000137,1.894e-05,0.0,0 STARLINK-3687,1 52110U 22029Y   24218.57212172  .00001894  00000-0  13700-3 0  9994,2 52110  53.2164 167.8608 0001079  77.8021 282.3092 15.08855642133052,6917.833,95.437,540.444,538.951,0.0
52110.0,STARLINK-3687,PAYLOAD,2024-08-06 04:02:22,15.08814029,0.0001292,53.2162,165.1851,85.54,274.5739,-7.7505e-05,-1.52e-05,0.0,0 STARLINK-3687,1 52110U 22029Y   24219.16832159 -.00001520  00000-0 -77505-4 0  9995,2 52110  53.2162 165.1851 0001292  85.5400 274.5739 15.08814029133140,6917.96,95.439,540.719,538.931,0.0
52110.0,STARLINK-3687,PAYLOAD,2024-08-06 05:37:46,15.08814011,0.0001329,53.2165,164.8846,81.3057,278.8085,-7.0652e-05,-1.411e-05,0.0,0 STARLINK-3687,1 52110U 22029Y   24219.23456237 -.00001411  00000-0 -70652-4 0  9997,2 52110  53.2165 164.8846 0001329  81.3057 278.8085 15.08814011133159,6917.96,95.439,540.744,538.905,0.0
